FENGYUN 1C DEB          
1 30088U 99025QR  17345.84712830  .00000129  00000-0  54670-4 0  9995
2 30088  98.5030  33.1697 0216363 279.4404 133.8167 14.29901380568595
